{
  "links" : {
    "next" : "https://api.nasa.gov/neo/rest/v1/feed?start_date=2004-08-16&end_date=2004-08-16&detailed=true&api_key=t0TVs3DtDT2H8Oy2Zy8m2eVrNsAVKAexjcZXUckd",
    "prev" : "https://api.nasa.gov/neo/rest/v1/feed?start_date=2004-08-14&end_date=2004-08-14&detailed=true&api_key=t0TVs3DtDT2H8Oy2Zy8m2eVrNsAVKAexjcZXUckd",
    "self" : "https://api.nasa.gov/neo/rest/v1/feed?start_date=2004-08-15&end_date=2004-08-15&detailed=true&api_key=t0TVs3DtDT2H8Oy2Zy8m2eVrNsAVKAexjcZXUckd"
  },
  "element_count" : 5,
  "near_earth_objects" : {
    "2004-08-15" : [ {
      "links" : {
        "self" : "https://api.nasa.gov/neo/rest/v1/neo/3249348?api_key=t0TVs3DtDT2H8Oy2Zy8m2eVrNsAVKAexjcZXUckd"
      },
      "neo_reference_id" : "3249348",
      "name" : "(2004 PU42)",
      "nasa_jpl_url" : "http://ssd.jpl.nasa.gov/sbdb.cgi?sstr=3249348",
      "absolute_magnitude_h" : 26.7,
      "estimated_diameter" : {
        "kilometers" : {
          "estimated_diameter_min" : 0.0121494041,
          "estimated_diameter_max" : 0.0271668934
        },
        "meters" : {
          "estimated_diameter_min" : 12.14940408,
          "estimated_diameter_max" : 27.1668934089
        },
        "miles" : {
          "estimated_diameter_min" : 0.0075492874,
          "estimated_diameter_max" : 0.0168807197
        },
        "feet" : {
          "estimated_diameter_min" : 39.8602508817,
          "estimated_diameter_max" : 89.1302305717
        }
      },
      "is_potentially_hazardous_asteroid" : false,
      "close_approach_data" : [ {
        "close_approach_date" : "2004-08-15",
        "epoch_date_close_approach" : 1092553200000,
        "relative_velocity" : {
          "kilometers_per_second" : "10.3298502652",
          "kilometers_per_hour" : "37187.4609545846",
          "miles_per_hour" : "23106.8420581418"
        },
        "miss_distance" : {
          "astronomical" : "0.005349152",
          "lunar" : "2.0808200836",
          "kilometers" : "800221.75",
          "miles" : "497234.71875"
        },
        "orbiting_body" : "Earth"
      } ],
      "orbital_data" : {
        "orbit_id" : "9",
        "orbit_determination_date" : "2017-04-06 09:12:30",
        "orbit_uncertainty" : "7",
        "minimum_orbit_intersection" : ".00103011",
        "jupiter_tisserand_invariant" : "4.291",
        "epoch_osculation" : "2458000.5",
        "eccentricity" : ".4438080611895903",
        "semi_major_axis" : "1.574500088104655",
        "inclination" : ".9907450837103622",
        "ascending_node_longitude" : "146.9555524473485",
        "orbital_period" : "721.6264792849819",
        "perihelion_distance" : ".8757242566600892",
        "perihelion_argument" : "232.5040438043279",
        "aphelion_distance" : "2.273275919549222",
        "perihelion_time" : "2458327.705414936960",
        "mean_anomaly" : "196.7660378898224",
        "mean_motion" : ".498873046283866",
        "equinox" : "J2000"
      }
    }, {
      "links" : {
        "self" : "https://api.nasa.gov/neo/rest/v1/neo/3261768?api_key=t0TVs3DtDT2H8Oy2Zy8m2eVrNsAVKAexjcZXUckd"
      },
      "neo_reference_id" : "3261768",
      "name" : "(2004 VY14)",
      "nasa_jpl_url" : "http://ssd.jpl.nasa.gov/sbdb.cgi?sstr=3261768",
      "absolute_magnitude_h" : 19.7,
      "estimated_diameter" : {
        "kilometers" : {
          "estimated_diameter_min" : 0.3051792326,
          "estimated_diameter_max" : 0.6824015094
        },
        "meters" : {
          "estimated_diameter_min" : 305.1792325939,
          "estimated_diameter_max" : 682.4015094011
        },
        "miles" : {
          "estimated_diameter_min" : 0.1896295249,
          "estimated_diameter_max" : 0.4240245083
        },
        "feet" : {
          "estimated_diameter_min" : 1001.2442334633,
          "estimated_diameter_max" : 2238.8501681036
        }
      },
      "is_potentially_hazardous_asteroid" : false,
      "close_approach_data" : [ {
        "close_approach_date" : "2004-08-15",
        "epoch_date_close_approach" : 1092553200000,
        "relative_velocity" : {
          "kilometers_per_second" : "14.9907396485",
          "kilometers_per_hour" : "53966.6627347087",
          "miles_per_hour" : "33532.7855197972"
        },
        "miss_distance" : {
          "astronomical" : "0.3043401266",
          "lunar" : "118.3883056641",
          "kilometers" : "45528636",
          "miles" : "28290182"
        },
        "orbiting_body" : "Earth"
      } ],
      "orbital_data" : {
        "orbit_id" : "29",
        "orbit_determination_date" : "2017-04-06 09:11:55",
        "orbit_uncertainty" : "0",
        "minimum_orbit_intersection" : ".0570343",
        "jupiter_tisserand_invariant" : "3.579",
        "epoch_osculation" : "2458000.5",
        "eccentricity" : ".650166903768747",
        "semi_major_axis" : "1.961184901099543",
        "inclination" : "7.026097545037219",
        "ascending_node_longitude" : "60.4160226725815",
        "orbital_period" : "1003.173932286302",
        "perihelion_distance" : ".6860873862336367",
        "perihelion_argument" : "230.3444432028377",
        "aphelion_distance" : "3.236282415965448",
        "perihelion_time" : "2458228.736037457922",
        "mean_anomaly" : "278.0949874787991",
        "mean_motion" : ".3588609994874323",
        "equinox" : "J2000"
      }
    }, {
      "links" : {
        "self" : "https://api.nasa.gov/neo/rest/v1/neo/3662292?api_key=t0TVs3DtDT2H8Oy2Zy8m2eVrNsAVKAexjcZXUckd"
      },
      "neo_reference_id" : "3662292",
      "name" : "(2014 DJ10)",
      "nasa_jpl_url" : "http://ssd.jpl.nasa.gov/sbdb.cgi?sstr=3662292",
      "absolute_magnitude_h" : 23.2,
      "estimated_diameter" : {
        "kilometers" : {
          "estimated_diameter_min" : 0.0608912622,
          "estimated_diameter_max" : 0.1361570015
        },
        "meters" : {
          "estimated_diameter_min" : 60.8912622106,
          "estimated_diameter_max" : 136.1570015386
        },
        "miles" : {
          "estimated_diameter_min" : 0.0378360645,
          "estimated_diameter_max" : 0.0846040122
        },
        "feet" : {
          "estimated_diameter_min" : 199.7744887109,
          "estimated_diameter_max" : 446.7093369279
        }
      },
      "is_potentially_hazardous_asteroid" : false,
      "close_approach_data" : [ {
        "close_approach_date" : "2004-08-15",
        "epoch_date_close_approach" : 1092553200000,
        "relative_velocity" : {
          "kilometers_per_second" : "15.6369205192",
          "kilometers_per_hour" : "56292.9138692035",
          "miles_per_hour" : "34978.2275094504"
        },
        "miss_distance" : {
          "astronomical" : "0.2807910191",
          "lunar" : "109.2277069092",
          "kilometers" : "42005740",
          "miles" : "26101156"
        },
        "orbiting_body" : "Earth"
      } ],
      "orbital_data" : {
        "orbit_id" : "8",
        "orbit_determination_date" : "2017-04-06 08:42:22",
        "orbit_uncertainty" : "7",
        "minimum_orbit_intersection" : ".00408893",
        "jupiter_tisserand_invariant" : "5.631",
        "epoch_osculation" : "2458000.5",
        "eccentricity" : ".1261761733378421",
        "semi_major_axis" : "1.087453535495932",
        "inclination" : "21.11544221262806",
        "ascending_node_longitude" : "154.28769653",
        "orbital_period" : "414.2041932618648",
        "perihelion_distance" : ".9502428097043477",
        "perihelion_argument" : "244.2151972604441",
        "aphelion_distance" : "1.224664261287516",
        "perihelion_time" : "2457835.269512941579",
        "mean_anomaly" : "143.6078540697578",
        "mean_motion" : ".8691365414845131",
        "equinox" : "J2000"
      }
    } ]
  }
}